ONEWEB-0660             
1 55820U 23029AA  26171.32359964  .00000235  00000+0  59962-3 0  9997
2 55820  87.8976 289.0730 0001559  99.9062 260.2244 13.14503397159811
ONEWEB-0661             
1 55821U 23029AB  26171.28237687 -.00000138  00000+0 -40720-3 0  9996
2 55821  87.8959 289.1257 0001642  96.4812 263.6504 13.14503104159795
ONEWEB-0662             
1 55822U 23029AC  26171.31726534  .00000286  00000+0  73737-3 0  9991
2 55822  87.8954 289.1246 0001596 100.9800 259.1510 13.14502850159845
ONEWEB-0663             
1 55823U 23029AD  26171.26815155  .00000009  00000+0 -10857-4 0  9993
2 55823  87.9202 273.8871 0001593 108.9518 251.1789 13.20869222161555
ONEWEB-0664             
1 55824U 23029AE  26171.29697049  .00000100  00000+0  21332-3 0  9997
2 55824  87.9185 273.8625 0001714  87.4527 272.6803 13.20770862161555
ONEWEB-0665             
1 55825U 23029AF  26171.27920444 -.00000232  00000+0 -65916-3 0  9998
2 55825  87.8957 289.1071 0001618 104.3607 255.7702 13.14503271159815
ONEWEB-0666             
1 55826U 23029AG  26171.29023453  .00000063  00000+0  12272-3 0  9992
2 55826  87.9185 273.8532 0002728 103.3347 256.8091 13.20771799161562
ONEWEB-0667             
1 55827U 23029AH  26171.28518791  .00000058  00000+0  11002-3 0  9990
2 55827  87.9202 273.8131 0001821  99.3631 260.7709 13.20772348161551
ONEWEB-0669             
1 55828U 23029AJ  26171.28013270  .00000035  00000+0  53439-4 0  9999
2 55828  87.9193 273.8248 0002192  86.5416 273.5968 13.20772231161551
ONEWEB-0670             
1 55829U 23029AK  26170.87641735  .00000061  00000+0  12884-3 0  9994
2 55829  87.8958 289.2046 0001610  90.8761 269.2553 13.14502779159787
ONEWEB-0671             
1 55830U 23029AL  26171.32362314  .00000126  00000+0  28268-3 0  9995
2 55830  87.9172 304.3507 0001738  99.0227 261.1102 13.19725022159311
ONEWEB-0672             
1 55831U 23029AM  26171.27507484  .00000067  00000+0  13193-3 0  9994
2 55831  87.9196 273.8194 0002251  98.1643 261.9746 13.20772498161555
ONEWEB-0673             
1 55832U 23029AN  26171.30071003  .00000071  00000+0  14530-3 0  9993
2 55832  87.9178 304.3471 0001741  97.7938 262.3392 13.19727916159315
ONEWEB-0674             
1 55833U 23029AP  26171.30139612  .00000128  00000+0  31049-3 0  9992
2 55833  87.8954 289.0967 0001663  89.9142 270.2179 13.14504687159829
ONEWEB-0675             
1 55834U 23029AQ  26170.93665199  .00000096  00000+0  20746-3 0  9991
2 55834  87.9172 304.4291 0002144 103.6050 256.5322 13.19724708159282
ONEWEB-0720             
1 55835U 23029AR  26171.30783240  .00000053  00000+0  99876-4 0  9996
2 55835  87.9171 304.3555 0001690 106.4493 253.6826 13.19724954159258
