[{"OBJECT_NAME":"ONEWEB-0660","OBJECT_ID":"2023-029AA","EPOCH":"2026-06-20T07:45:59.008896","MEAN_MOTION":13.14503397,"ECCENTRICITY":0.0001559,"INCLINATION":87.8976,"RA_OF_ASC_NODE":289.073,"ARG_OF_PERICENTER":99.9062,"MEAN_ANOMALY":260.2244,"EPHEMERIS_TYPE":0,"CLASSIFICATION_TYPE":"U","NORAD_CAT_ID":55820,"ELEMENT_SET_NO":999,"REV_AT_EPOCH":15981,"BSTAR":0.00059962,"MEAN_MOTION_DOT":2.35e-06,"MEAN_MOTION_DDOT":0.0},{"OBJECT_NAME":"ONEWEB-0661","OBJECT_ID":"2023-029AB","EPOCH":"2026-06-20T06:46:37.361568","MEAN_MOTION":13.14503104,"ECCENTRICITY":0.0001642,"INCLINATION":87.8959,"RA_OF_ASC_NODE":289.1257,"ARG_OF_PERICENTER":96.4812,"MEAN_ANOMALY":263.6504,"EPHEMERIS_TYPE":0,"CLASSIFICATION_TYPE":"U","NORAD_CAT_ID":55821,"ELEMENT_SET_NO":999,"REV_AT_EPOCH":15979,"BSTAR":-0.00040720000000000003,"MEAN_MOTION_DOT":-1.38e-06,"MEAN_MOTION_DDOT":0.0},{"OBJECT_NAME":"ONEWEB-0662","OBJECT_ID":"2023-029AC","EPOCH":"2026-06-20T07:36:51.725376","MEAN_MOTION":13.1450285,"ECCENTRICITY":0.0001596,"INCLINATION":87.8954,"RA_OF_ASC_NODE":289.1246,"ARG_OF_PERICENTER":100.98,"MEAN_ANOMALY":259.151,"EPHEMERIS_TYPE":0,"CLASSIFICATION_TYPE":"U","NORAD_CAT_ID":55822,"ELEMENT_SET_NO":999,"REV_AT_EPOCH":15984,"BSTAR":0.00073737,"MEAN_MOTION_DOT":2.86e-06,"MEAN_MOTION_DDOT":0.0},{"OBJECT_NAME":"ONEWEB-0663","OBJECT_ID":"2023-029AD","EPOCH":"2026-06-20T06:26:08.293920","MEAN_MOTION":13.20869222,"ECCENTRICITY":0.0001593,"INCLINATION":87.9202,"RA_OF_ASC_NODE":273.8871,"ARG_OF_PERICENTER":108.9518,"MEAN_ANOMALY":251.1789,"EPHEMERIS_TYPE":0,"CLASSIFICATION_TYPE":"U","NORAD_CAT_ID":55823,"ELEMENT_SET_NO":999,"REV_AT_EPOCH":16155,"BSTAR":-1.0857000000000001e-05,"MEAN_MOTION_DOT":9e-08,"MEAN_MOTION_DDOT":0.0},{"OBJECT_NAME":"ONEWEB-0664","OBJECT_ID":"2023-029AE","EPOCH":"2026-06-20T07:07:38.250336","MEAN_MOTION":13.20770862,"ECCENTRICITY":0.0001714,"INCLINATION":87.9185,"RA_OF_ASC_NODE":273.8625,"ARG_OF_PERICENTER":87.4527,"MEAN_ANOMALY":272.6803,"EPHEMERIS_TYPE":0,"CLASSIFICATION_TYPE":"U","NORAD_CAT_ID":55824,"ELEMENT_SET_NO":999,"REV_AT_EPOCH":16155,"BSTAR":0.00021332000000000002,"MEAN_MOTION_DOT":1e-06,"MEAN_MOTION_DDOT":0.0},{"OBJECT_NAME":"ONEWEB-0665","OBJECT_ID":"2023-029AF","EPOCH":"2026-06-20T06:42:03.263616","MEAN_MOTION":13.14503271,"ECCENTRICITY":0.0001618,"INCLINATION":87.8957,"RA_OF_ASC_NODE":289.1071,"ARG_OF_PERICENTER":104.3607,"MEAN_ANOMALY":255.7702,"EPHEMERIS_TYPE":0,"CLASSIFICATION_TYPE":"U","NORAD_CAT_ID":55825,"ELEMENT_SET_NO":999,"REV_AT_EPOCH":15981,"BSTAR":-0.00065916,"MEAN_MOTION_DOT":-2.32e-06,"MEAN_MOTION_DDOT":0.0},{"OBJECT_NAME":"ONEWEB-0666","OBJECT_ID":"2023-029AG","EPOCH":"2026-06-20T06:57:56.263392","MEAN_MOTION":13.20771799,"ECCENTRICITY":0.0002728,"INCLINATION":87.9185,"RA_OF_ASC_NODE":273.8532,"ARG_OF_PERICENTER":103.3347,"MEAN_ANOMALY":256.8091,"EPHEMERIS_TYPE":0,"CLASSIFICATION_TYPE":"U","NORAD_CAT_ID":55826,"ELEMENT_SET_NO":999,"REV_AT_EPOCH":16156,"BSTAR":0.00012272,"MEAN_MOTION_DOT":6.3e-07,"MEAN_MOTION_DDOT":0.0},{"OBJECT_NAME":"ONEWEB-0667","OBJECT_ID":"2023-029AH","EPOCH":"2026-06-20T06:50:40.235424","MEAN_MOTION":13.20772348,"ECCENTRICITY":0.0001821,"INCLINATION":87.9202,"RA_OF_ASC_NODE":273.8131,"ARG_OF_PERICENTER":99.3631,"MEAN_ANOMALY":260.7709,"EPHEMERIS_TYPE":0,"CLASSIFICATION_TYPE":"U","NORAD_CAT_ID":55827,"ELEMENT_SET_NO":999,"REV_AT_EPOCH":16155,"BSTAR":0.00011002000000000001,"MEAN_MOTION_DOT":5.8e-07,"MEAN_MOTION_DDOT":0.0},{"OBJECT_NAME":"ONEWEB-0669","OBJECT_ID":"2023-029AJ","EPOCH":"2026-06-20T06:43:23.465280","MEAN_MOTION":13.20772231,"ECCENTRICITY":0.0002192,"INCLINATION":87.9193,"RA_OF_ASC_NODE":273.8248,"ARG_OF_PERICENTER":86.5416,"MEAN_ANOMALY":273.5968,"EPHEMERIS_TYPE":0,"CLASSIFICATION_TYPE":"U","NORAD_CAT_ID":55828,"ELEMENT_SET_NO":999,"REV_AT_EPOCH":16155,"BSTAR":5.343900000000001e-05,"MEAN_MOTION_DOT":3.5e-07,"MEAN_MOTION_DDOT":0.0},{"OBJECT_NAME":"ONEWEB-0670","OBJECT_ID":"2023-029AK","EPOCH":"2026-06-19T21:02:02.459040","MEAN_MOTION":13.14502779,"ECCENTRICITY":0.000161,"INCLINATION":87.8958,"RA_OF_ASC_NODE":289.2046,"ARG_OF_PERICENTER":90.8761,"MEAN_ANOMALY":269.2553,"EPHEMERIS_TYPE":0,"CLASSIFICATION_TYPE":"U","NORAD_CAT_ID":55829,"ELEMENT_SET_NO":999,"REV_AT_EPOCH":15978,"BSTAR":0.00012884000000000002,"MEAN_MOTION_DOT":6.1e-07,"MEAN_MOTION_DDOT":0.0},{"OBJECT_NAME":"ONEWEB-0671","OBJECT_ID":"2023-029AL","EPOCH":"2026-06-20T07:46:01.039296","MEAN_MOTION":13.19725022,"ECCENTRICITY":0.0001738,"INCLINATION":87.9172,"RA_OF_ASC_NODE":304.3507,"ARG_OF_PERICENTER":99.0227,"MEAN_ANOMALY":261.1102,"EPHEMERIS_TYPE":0,"CLASSIFICATION_TYPE":"U","NORAD_CAT_ID":55830,"ELEMENT_SET_NO":999,"REV_AT_EPOCH":15931,"BSTAR":0.00028268,"MEAN_MOTION_DOT":1.26e-06,"MEAN_MOTION_DDOT":0.0},{"OBJECT_NAME":"ONEWEB-0672","OBJECT_ID":"2023-029AM","EPOCH":"2026-06-20T06:36:06.466176","MEAN_MOTION":13.20772498,"ECCENTRICITY":0.0002251,"INCLINATION":87.9196,"RA_OF_ASC_NODE":273.8194,"ARG_OF_PERICENTER":98.1643,"MEAN_ANOMALY":261.9746,"EPHEMERIS_TYPE":0,"CLASSIFICATION_TYPE":"U","NORAD_CAT_ID":55831,"ELEMENT_SET_NO":999,"REV_AT_EPOCH":16155,"BSTAR":0.00013193,"MEAN_MOTION_DOT":6.7e-07,"MEAN_MOTION_DDOT":0.0},{"OBJECT_NAME":"ONEWEB-0673","OBJECT_ID":"2023-029AN","EPOCH":"2026-06-20T07:13:01.346592","MEAN_MOTION":13.19727916,"ECCENTRICITY":0.0001741,"INCLINATION":87.9178,"RA_OF_ASC_NODE":304.3471,"ARG_OF_PERICENTER":97.7938,"MEAN_ANOMALY":262.3392,"EPHEMERIS_TYPE":0,"CLASSIFICATION_TYPE":"U","NORAD_CAT_ID":55832,"ELEMENT_SET_NO":999,"REV_AT_EPOCH":15931,"BSTAR":0.0001453,"MEAN_MOTION_DOT":7.1e-07,"MEAN_MOTION_DDOT":0.0},{"OBJECT_NAME":"ONEWEB-0674","OBJECT_ID":"2023-029AP","EPOCH":"2026-06-20T07:14:00.624768","MEAN_MOTION":13.14504687,"ECCENTRICITY":0.0001663,"INCLINATION":87.8954,"RA_OF_ASC_NODE":289.0967,"ARG_OF_PERICENTER":89.9142,"MEAN_ANOMALY":270.2179,"EPHEMERIS_TYPE":0,"CLASSIFICATION_TYPE":"U","NORAD_CAT_ID":55833,"ELEMENT_SET_NO":999,"REV_AT_EPOCH":15982,"BSTAR":0.00031049,"MEAN_MOTION_DOT":1.28e-06,"MEAN_MOTION_DDOT":0.0},{"OBJECT_NAME":"ONEWEB-0675","OBJECT_ID":"2023-029AQ","EPOCH":"2026-06-19T22:28:46.731936","MEAN_MOTION":13.19724708,"ECCENTRICITY":0.0002144,"INCLINATION":87.9172,"RA_OF_ASC_NODE":304.4291,"ARG_OF_PERICENTER":103.605,"MEAN_ANOMALY":256.5322,"EPHEMERIS_TYPE":0,"CLASSIFICATION_TYPE":"U","NORAD_CAT_ID":55834,"ELEMENT_SET_NO":999,"REV_AT_EPOCH":15928,"BSTAR":0.00020746000000000002,"MEAN_MOTION_DOT":9.6e-07,"MEAN_MOTION_DDOT":0.0},{"OBJECT_NAME":"ONEWEB-0720","OBJECT_ID":"2023-029AR","EPOCH":"2026-06-20T07:23:16.719360","MEAN_MOTION":13.19724954,"ECCENTRICITY":0.000169,"INCLINATION":87.9171,"RA_OF_ASC_NODE":304.3555,"ARG_OF_PERICENTER":106.4493,"MEAN_ANOMALY":253.6826,"EPHEMERIS_TYPE":0,"CLASSIFICATION_TYPE":"U","NORAD_CAT_ID":55835,"ELEMENT_SET_NO":999,"REV_AT_EPOCH":15925,"BSTAR":9.9876e-05,"MEAN_MOTION_DOT":5.3e-07,"MEAN_MOTION_DDOT":0.0}]